STARLINK-31512          
1 59500U 24071S   25208.77616662  .00001695  00000+0  71131-4 0  9998
2 59500  43.0007 129.7841 0001248 250.6499 109.4218 15.27564501 74267
STARLINK-31458          
1 59501U 24071T   25209.19426968  .00000282  00000+0  19777-4 0  9993
2 59501  43.0006 167.4317 0000862 272.6020  87.4733 15.27572989 73837
STARLINK-31357          
1 59502U 24071U   25209.23154168 -.00002714  00000+0 -89154-4 0  9999
2 59502  43.0025 167.7100 0001431 289.1221  70.9476 15.27569743 73892
STARLINK-31508          
1 59503U 24071V   25209.17002296 -.00002851  00000+0 -94203-4 0  9990
2 59503  42.9999 168.1062 0000821 282.4019  77.6740 15.27559008 73820
STARLINK-31535          
1 59504U 24071W   25209.20373029 -.00000485  00000+0 -81043-5 0  9990
2 59504  43.0013 175.2795 0000583 266.0889  93.9896 15.27572997 73746
STARLINK-31533          
1 59505U 24071X   25209.37386644  .00000238  00000+0  18183-4 0  9994
2 59505  43.0014 167.0541 0001036 275.3344  84.7390 15.27580385 73858
STARLINK-31524          
1 59506U 24071Y   25209.21833733 -.00000405  00000+0 -52001-5 0  9990
2 59506  43.0002 160.4908 0001016 260.6457  99.4280 15.27571736 73929
STARLINK-31635          
1 59511U 24073A   25209.17644416 -.00004008  00000+0 -13614-3 0  9999
2 59511  43.0017 145.5747 0001250 269.5712  90.4996 15.27592013 73069
STARLINK-31650          
1 59512U 24073B   25208.88549664  .00000389  00000+0  23640-4 0  9993
2 59512  43.0018 147.6900 0001132 257.3386 102.7339 15.27580025 71792
STARLINK-31658          
1 59513U 24073C   25209.10965344 -.00000057  00000+0  74576-5 0  9995
2 59513  43.0048 106.0535 0001295 265.9945  94.0759 15.27582318 73399
STARLINK-31669          
1 59515U 24073E   25208.53287087  .00005352  00000+0  20383-3 0  9991
2 59515  43.0008 149.3428 0000898 247.7484 112.3272 15.27583511 71749
STARLINK-31671          
1 59516U 24073F   25208.24191124  .00000060  00000+0  11704-4 0  9995
2 59516  43.0016 151.4526 0001309 254.2269 105.8438 15.27578294 72928
STARLINK-31674          
1 59517U 24073G   25209.19829532 -.00000974  00000+0 -25878-4 0  9995
2 59517  43.0009 145.7420 0000922 265.8504  94.2243 15.27576240 73060
STARLINK-31679          
1 59519U 24073J   25209.19075039  .00000106  00000+0  13397-4 0  9990
2 59519  43.0022 135.2901 0001587 255.1750 104.8926 15.27578992 73194
STARLINK-31370          
1 59520U 24073K   25208.89321212 -.00000889  00000+0 -22785-4 0  9996
2 59520  43.0008 147.7461 0001175 268.8150  91.2567 15.27572913 71798
STARLINK-31404          
1 59521U 24073L   25209.23041914  .00002697  00000+0  10746-3 0  9994
2 59521  43.0018 145.9729 0001210 263.4407  96.6307 15.27587977 73062
STARLINK-31453          
1 59522U 24073M   25208.79935400  .00007167  00000+0  26984-3 0  9995
2 59522  43.0007 130.2977 0000863 315.1447  44.9335 15.27563656 71989
