[{"OBJECT_NAME":"STARLINK-31512","OBJECT_ID":"2024-071S","EPOCH":"2025-07-27T18:37:40.795968","MEAN_MOTION":15.27564501,"ECCENTRICITY":0.0001248,"INCLINATION":43.0007,"RA_OF_ASC_NODE":129.7841,"ARG_OF_PERICENTER":250.6499,"MEAN_ANOMALY":109.4218,"EPHEMERIS_TYPE":0,"CLASSIFICATION_TYPE":"U","NORAD_CAT_ID":59500,"ELEMENT_SET_NO":999,"REV_AT_EPOCH":7426,"BSTAR":7.1131e-5,"MEAN_MOTION_DOT":1.695e-5,"MEAN_MOTION_DDOT":0},{"OBJECT_NAME":"STARLINK-31458","OBJECT_ID":"2024-071T","EPOCH":"2025-07-28T04:39:44.900352","MEAN_MOTION":15.27572989,"ECCENTRICITY":8.62e-5,"INCLINATION":43.0006,"RA_OF_ASC_NODE":167.4317,"ARG_OF_PERICENTER":272.602,"MEAN_ANOMALY":87.4733,"EPHEMERIS_TYPE":0,"CLASSIFICATION_TYPE":"U","NORAD_CAT_ID":59501,"ELEMENT_SET_NO":999,"REV_AT_EPOCH":7383,"BSTAR":1.9777e-5,"MEAN_MOTION_DOT":2.82e-6,"MEAN_MOTION_DDOT":0},{"OBJECT_NAME":"STARLINK-31357","OBJECT_ID":"2024-071U","EPOCH":"2025-07-28T05:33:25.201152","MEAN_MOTION":15.27569743,"ECCENTRICITY":0.0001431,"INCLINATION":43.0025,"RA_OF_ASC_NODE":167.71,"ARG_OF_PERICENTER":289.1221,"MEAN_ANOMALY":70.9476,"EPHEMERIS_TYPE":0,"CLASSIFICATION_TYPE":"U","NORAD_CAT_ID":59502,"ELEMENT_SET_NO":999,"REV_AT_EPOCH":7389,"BSTAR":-8.9154e-5,"MEAN_MOTION_DOT":-2.714e-5,"MEAN_MOTION_DDOT":0},{"OBJECT_NAME":"STARLINK-31508","OBJECT_ID":"2024-071V","EPOCH":"2025-07-28T04:04:49.983744","MEAN_MOTION":15.27559008,"ECCENTRICITY":8.21e-5,"INCLINATION":42.9999,"RA_OF_ASC_NODE":168.1062,"ARG_OF_PERICENTER":282.4019,"MEAN_ANOMALY":77.674,"EPHEMERIS_TYPE":0,"CLASSIFICATION_TYPE":"U","NORAD_CAT_ID":59503,"ELEMENT_SET_NO":999,"REV_AT_EPOCH":7382,"BSTAR":-9.4203e-5,"MEAN_MOTION_DOT":-2.851e-5,"MEAN_MOTION_DDOT":0},{"OBJECT_NAME":"STARLINK-31535","OBJECT_ID":"2024-071W","EPOCH":"2025-07-28T04:53:22.297056","MEAN_MOTION":15.27572997,"ECCENTRICITY":5.83e-5,"INCLINATION":43.0013,"RA_OF_ASC_NODE":175.2795,"ARG_OF_PERICENTER":266.0889,"MEAN_ANOMALY":93.9896,"EPHEMERIS_TYPE":0,"CLASSIFICATION_TYPE":"U","NORAD_CAT_ID":59504,"ELEMENT_SET_NO":999,"REV_AT_EPOCH":7374,"BSTAR":-8.1043e-6,"MEAN_MOTION_DOT":-4.85e-6,"MEAN_MOTION_DDOT":0},{"OBJECT_NAME":"STARLINK-31533","OBJECT_ID":"2024-071X","EPOCH":"2025-07-28T08:58:22.060416","MEAN_MOTION":15.27580385,"ECCENTRICITY":0.0001036,"INCLINATION":43.0014,"RA_OF_ASC_NODE":167.0541,"ARG_OF_PERICENTER":275.3344,"MEAN_ANOMALY":84.739,"EPHEMERIS_TYPE":0,"CLASSIFICATION_TYPE":"U","NORAD_CAT_ID":59505,"ELEMENT_SET_NO":999,"REV_AT_EPOCH":7385,"BSTAR":1.8183e-5,"MEAN_MOTION_DOT":2.38e-6,"MEAN_MOTION_DDOT":0},{"OBJECT_NAME":"STARLINK-31524","OBJECT_ID":"2024-071Y","EPOCH":"2025-07-28T05:14:24.345312","MEAN_MOTION":15.27571736,"ECCENTRICITY":0.0001016,"INCLINATION":43.0002,"RA_OF_ASC_NODE":160.4908,"ARG_OF_PERICENTER":260.6457,"MEAN_ANOMALY":99.428,"EPHEMERIS_TYPE":0,"CLASSIFICATION_TYPE":"U","NORAD_CAT_ID":59506,"ELEMENT_SET_NO":999,"REV_AT_EPOCH":7392,"BSTAR":-5.2001e-6,"MEAN_MOTION_DOT":-4.05e-6,"MEAN_MOTION_DDOT":0},{"OBJECT_NAME":"STARLINK-31635","OBJECT_ID":"2024-073A","EPOCH":"2025-07-28T04:14:04.775424","MEAN_MOTION":15.27592013,"ECCENTRICITY":0.000125,"INCLINATION":43.0017,"RA_OF_ASC_NODE":145.5747,"ARG_OF_PERICENTER":269.5712,"MEAN_ANOMALY":90.4996,"EPHEMERIS_TYPE":0,"CLASSIFICATION_TYPE":"U","NORAD_CAT_ID":59511,"ELEMENT_SET_NO":999,"REV_AT_EPOCH":7306,"BSTAR":-0.00013614,"MEAN_MOTION_DOT":-4.008e-5,"MEAN_MOTION_DDOT":0},{"OBJECT_NAME":"STARLINK-31650","OBJECT_ID":"2024-073B","EPOCH":"2025-07-27T21:15:06.909696","MEAN_MOTION":15.27580025,"ECCENTRICITY":0.0001132,"INCLINATION":43.0018,"RA_OF_ASC_NODE":147.69,"ARG_OF_PERICENTER":257.3386,"MEAN_ANOMALY":102.7339,"EPHEMERIS_TYPE":0,"CLASSIFICATION_TYPE":"U","NORAD_CAT_ID":59512,"ELEMENT_SET_NO":999,"REV_AT_EPOCH":7179,"BSTAR":2.364e-5,"MEAN_MOTION_DOT":3.89e-6,"MEAN_MOTION_DDOT":0},{"OBJECT_NAME":"STARLINK-31658","OBJECT_ID":"2024-073C","EPOCH":"2025-07-28T02:37:54.057216","MEAN_MOTION":15.27582318,"ECCENTRICITY":0.0001295,"INCLINATION":43.0048,"RA_OF_ASC_NODE":106.0535,"ARG_OF_PERICENTER":265.9945,"MEAN_ANOMALY":94.0759,"EPHEMERIS_TYPE":0,"CLASSIFICATION_TYPE":"U","NORAD_CAT_ID":59513,"ELEMENT_SET_NO":999,"REV_AT_EPOCH":7339,"BSTAR":7.4576e-6,"MEAN_MOTION_DOT":-5.7e-7,"MEAN_MOTION_DDOT":0},{"OBJECT_NAME":"STARLINK-31669","OBJECT_ID":"2024-073E","EPOCH":"2025-07-27T12:47:20.043168","MEAN_MOTION":15.27583511,"ECCENTRICITY":8.98e-5,"INCLINATION":43.0008,"RA_OF_ASC_NODE":149.3428,"ARG_OF_PERICENTER":247.7484,"MEAN_ANOMALY":112.3272,"EPHEMERIS_TYPE":0,"CLASSIFICATION_TYPE":"U","NORAD_CAT_ID":59515,"ELEMENT_SET_NO":999,"REV_AT_EPOCH":7174,"BSTAR":0.00020383,"MEAN_MOTION_DOT":5.352e-5,"MEAN_MOTION_DDOT":0},{"OBJECT_NAME":"STARLINK-31671","OBJECT_ID":"2024-073F","EPOCH":"2025-07-27T05:48:21.131136","MEAN_MOTION":15.27578294,"ECCENTRICITY":0.0001309,"INCLINATION":43.0016,"RA_OF_ASC_NODE":151.4526,"ARG_OF_PERICENTER":254.2269,"MEAN_ANOMALY":105.8438,"EPHEMERIS_TYPE":0,"CLASSIFICATION_TYPE":"U","NORAD_CAT_ID":59516,"ELEMENT_SET_NO":999,"REV_AT_EPOCH":7292,"BSTAR":1.1704e-5,"MEAN_MOTION_DOT":6.0e-7,"MEAN_MOTION_DDOT":0},{"OBJECT_NAME":"STARLINK-31674","OBJECT_ID":"2024-073G","EPOCH":"2025-07-28T04:45:32.715648","MEAN_MOTION":15.2757624,"ECCENTRICITY":9.22e-5,"INCLINATION":43.0009,"RA_OF_ASC_NODE":145.742,"ARG_OF_PERICENTER":265.8504,"MEAN_ANOMALY":94.2243,"EPHEMERIS_TYPE":0,"CLASSIFICATION_TYPE":"U","NORAD_CAT_ID":59517,"ELEMENT_SET_NO":999,"REV_AT_EPOCH":7306,"BSTAR":-2.5878e-5,"MEAN_MOTION_DOT":-9.74e-6,"MEAN_MOTION_DDOT":0},{"OBJECT_NAME":"STARLINK-31679","OBJECT_ID":"2024-073J","EPOCH":"2025-07-28T04:34:40.833696","MEAN_MOTION":15.27578992,"ECCENTRICITY":0.0001587,"INCLINATION":43.0022,"RA_OF_ASC_NODE":135.2901,"ARG_OF_PERICENTER":255.175,"MEAN_ANOMALY":104.8926,"EPHEMERIS_TYPE":0,"CLASSIFICATION_TYPE":"U","NORAD_CAT_ID":59519,"ELEMENT_SET_NO":999,"REV_AT_EPOCH":7319,"BSTAR":1.3397e-5,"MEAN_MOTION_DOT":1.06e-6,"MEAN_MOTION_DDOT":0},{"OBJECT_NAME":"STARLINK-31370","OBJECT_ID":"2024-073K","EPOCH":"2025-07-27T21:26:13.527168","MEAN_MOTION":15.27572913,"ECCENTRICITY":0.0001175,"INCLINATION":43.0008,"RA_OF_ASC_NODE":147.7461,"ARG_OF_PERICENTER":268.815,"MEAN_ANOMALY":91.2567,"EPHEMERIS_TYPE":0,"CLASSIFICATION_TYPE":"U","NORAD_CAT_ID":59520,"ELEMENT_SET_NO":999,"REV_AT_EPOCH":7179,"BSTAR":-2.2785e-5,"MEAN_MOTION_DOT":-8.89e-6,"MEAN_MOTION_DDOT":0},{"OBJECT_NAME":"STARLINK-31404","OBJECT_ID":"2024-073L","EPOCH":"2025-07-28T05:31:48.213696","MEAN_MOTION":15.27587977,"ECCENTRICITY":0.000121,"INCLINATION":43.0018,"RA_OF_ASC_NODE":145.9729,"ARG_OF_PERICENTER":263.4407,"MEAN_ANOMALY":96.6307,"EPHEMERIS_TYPE":0,"CLASSIFICATION_TYPE":"U","NORAD_CAT_ID":59521,"ELEMENT_SET_NO":999,"REV_AT_EPOCH":7306,"BSTAR":0.00010746,"MEAN_MOTION_DOT":2.697e-5,"MEAN_MOTION_DDOT":0},{"OBJECT_NAME":"STARLINK-31453","OBJECT_ID":"2024-073M","EPOCH":"2025-07-27T19:11:04.185600","MEAN_MOTION":15.27563656,"ECCENTRICITY":8.63e-5,"INCLINATION":43.0007,"RA_OF_ASC_NODE":130.2977,"ARG_OF_PERICENTER":315.1447,"MEAN_ANOMALY":44.9335,"EPHEMERIS_TYPE":0,"CLASSIFICATION_TYPE":"U","NORAD_CAT_ID":59522,"ELEMENT_SET_NO":999,"REV_AT_EPOCH":7198,"BSTAR":0.00026984,"MEAN_MOTION_DOT":7.167e-5,"MEAN_MOTION_DDOT":0}]
